COSMOS 2600             
1 67674U 26023A   26063.78380159  .00084921  00000+0  39346-3 0  9992
2 67674  96.6435 139.5819 0002247 356.6752   3.4504 15.83225354  4277
2026-023B               
1 67675U 26023B   26063.39805439  .00017809  00000+0  75835-3 0  9997
2 67675  96.6368 136.9588 0019232 149.8660 210.3690 15.22849981  4051
2026-023C               
1 67676U 26023C   26063.46244054  .00018268  00000+0  77493-3 0  9998
2 67676  96.6403 137.0391 0020297 140.0758 220.1978 15.22954337  4229
2026-023D               
1 67677U 26023D   26063.46492609  .00017357  00000+0  74039-3 0  9991
2 67677  96.6434 137.0274 0020512 144.9251 215.3343 15.22772595  4052
2026-023F               
1 67679U 26023F   26063.85457428  .00018557  00000+0  78271-3 0  9991
2 67679  96.6333 139.8569 0022154 137.9247 222.3698 15.23108492  4107
2026-023H               
1 67681U 26023H   26063.72400972  .00015407  00000+0  65205-3 0  9996
2 67681  96.6407 139.7545 0023811 134.4058 225.9135 15.22993227  4087
2026-023J               
1 67682U 26023J   26063.85424462  .00018623  00000+0  78472-3 0  9994
2 67682  96.6360 139.8749 0023894 130.7797 229.5520 15.23102960  4101
ISS OBJECT XZ           
1 67683U 98067XZ  26063.31738248  .00052289  00000+0  87421-3 0  9993
2 67683  51.6304  98.5346 0009491 167.7937 192.3284 15.51337660  3952
GXIBA-1                 
1 67684U 98067YA  26063.36223978  .00103687  00000+0  15928-2 0  9999
2 67684  51.6304  98.0837 0010966 158.3351 201.8106 15.53373762  3963
CORAL                   
1 67685U 98067YB  26063.31409248  .00057704  00000+0  95212-3 0  9994
2 67685  51.6305  98.5128 0011398 164.0725 196.0625 15.51642058  3957
